start=new Date('2021-11-22T00:00:00.000Z').valueOf();
sats=[{"LAUNCH_DATE":"2020-09-03","BSTAR":"0.00014685000000","COUNTRY_CODE":"US","TLE_LINE1":"1 46350U 20062AB  21325.45406552  .00001907  00000-0  14685-3 0  9996","REF_FRAME":"TEME","RCS_SIZE":"LARGE","MEAN_MOTION_DDOT":"0.0000000000000","OBJECT_NAME":"STARLINK-1617","REV_AT_EPOCH":"6779","RA_OF_ASC_NODE":"221.1811","EPOCH":"2021-11-21T10:53:51.260928","TIME_SYSTEM":"UTC","MEAN_ANOMALY":"285.6067","TLE_LINE2":"2 46350  53.0541 221.1811 0002027  74.5146 285.6067 15.06405288 67794","MEAN_MOTION":"15.06405288","PERIOD":"95.592","OBJECT_TYPE":"PAYLOAD","INCLINATION":"53.0541","MEAN_MOTION_DOT":"0.00001907","CENTER_NAME":"EARTH","APOAPSIS":"548.601","MEAN_ELEMENT_THEORY":"SGP4","ECCENTRICITY":"0.00020270","DECAY_DATE":null,"SEMIMAJOR_AXIS":"6925.332","ELEMENT_SET_NO":"999","FILE":"3220686","GP_ID":"190203571","NORAD_CAT_ID":"46350","SITE":"AFETR","OBJECT_ID":"2020-062AB","ARG_OF_PERICENTER":"74.5146","PERIAPSIS":"545.794","EPHEMERIS_TYPE":"0","CLASSIFICATION_TYPE":"U"},{"MEAN_MOTION":"15.06400600","TLE_LINE2":"2 46351  53.0531 201.4640 0001963  75.5519 284.5687 15.06400600 68068","MEAN_ANOMALY":"284.5687","TIME_SYSTEM":"UTC","EPOCH":"2021-11-21T09:26:17.103264","CENTER_NAME":"EARTH","APOAPSIS":"548.571","MEAN_MOTION_DOT":"0.00001229","INCLINATION":"53.0531","OBJECT_TYPE":"PAYLOAD","PERIOD":"95.592","COUNTRY_CODE":"US","BSTAR":"0.00010140000000","LAUNCH_DATE":"2020-09-03","RA_OF_ASC_NODE":"201.4640","REV_AT_EPOCH":"6806","MEAN_MOTION_DDOT":"0.0000000000000","OBJECT_NAME":"STARLINK-1646","RCS_SIZE":"LARGE","REF_FRAME":"TEME","TLE_LINE1":"1 46351U 20062AC  21325.39325351  .00001229  00000-0  10140-3 0  9996","ARG_OF_PERICENTER":"75.5519","OBJECT_ID":"2020-062AC","SITE":"AFETR","CLASSIFICATION_TYPE":"U","EPHEMERIS_TYPE":"0","PERIAPSIS":"545.852","SEMIMAJOR_AXIS":"6925.347","DECAY_DATE":null,"ECCENTRICITY":"0.00019630","MEAN_ELEMENT_THEORY":"SGP4","NORAD_CAT_ID":"46351","GP_ID":"190204322","FILE":"3220686","ELEMENT_SET_NO":"999"},{"SITE":"AFETR","ARG_OF_PERICENTER":"73.7711","OBJECT_ID":"2020-062AD","EPHEMERIS_TYPE":"0","PERIAPSIS":"545.823","CLASSIFICATION_TYPE":"U","SEMIMAJOR_AXIS":"6925.364","DECAY_DATE":null,"ECCENTRICITY":"0.00020300","MEAN_ELEMENT_THEORY":"SGP4","FILE":"3220686","ELEMENT_SET_NO":"999","NORAD_CAT_ID":"46352","GP_ID":"190205069","EPOCH":"2021-11-21T04:13:07.900896","TLE_LINE2":"2 46352  53.0539 202.4352 0002030  73.7711 286.3501 15.06394871 68032","MEAN_MOTION":"15.06394871","MEAN_ANOMALY":"286.3501","TIME_SYSTEM":"UTC","PERIOD":"95.592","APOAPSIS":"548.635","CENTER_NAME":"EARTH","MEAN_MOTION_DOT":"0.00001297","INCLINATION":"53.0539","OBJECT_TYPE":"PAYLOAD","LAUNCH_DATE":"2020-09-03","COUNTRY_CODE":"US","BSTAR":"0.00010599000000","RCS_SIZE":"LARGE","REF_FRAME":"TEME","TLE_LINE1":"1 46352U 20062AD  21325.17578589  .00001297  00000-0  10599-3 0  9999","RA_OF_ASC_NODE":"202.4352","REV_AT_EPOCH":"6803","MEAN_MOTION_DDOT":"0.0000000000000","OBJECT_NAME":"STARLINK-1653"},{"RA_OF_ASC_NODE":"221.2606","REV_AT_EPOCH":"6778","MEAN_MOTION_DDOT":"0.0000000000000","OBJECT_NAME":"STARLINK-1656","RCS_SIZE":"LARGE","REF_FRAME":"TEME","TLE_LINE1":"1 46353U 20062AE  21325.43933547  .00001582  00000-0  12511-3 0  9991","COUNTRY_CODE":"US","BSTAR":"0.00012511000000","LAUNCH_DATE":"2020-09-03","APOAPSIS":"548.465","CENTER_NAME":"EARTH","MEAN_MOTION_DOT":"0.00001582","INCLINATION":"53.0545","OBJECT_TYPE":"PAYLOAD","PERIOD":"95.592","MEAN_MOTION":"15.06397616","TLE_LINE2":"2 46353  53.0545 221.2606 0001796  76.6547 283.4642 15.06397616 67783","MEAN_ANOMALY":"283.4642","TIME_SYSTEM":"UTC","EPOCH":"2021-11-21T10:32:38.584608","NORAD_CAT_ID":"46353","GP_ID":"190203822","FILE":"3220686","ELEMENT_SET_NO":"999","SEMIMAJOR_AXIS":"6925.356","DECAY_DATE":null,"ECCENTRICITY":"0.00017960","MEAN_ELEMENT_THEORY":"SGP4","CLASSIFICATION_TYPE":"U","EPHEMERIS_TYPE":"0","PERIAPSIS":"545.977","ARG_OF_PERICENTER":"76.6547","OBJECT_ID":"2020-062AE","SITE":"AFETR"},{"TLE_LINE2":"2 46354  53.0532 221.3013 0001631  72.2435 287.8731 15.06394503 67788","MEAN_MOTION":"15.06394503","MEAN_ANOMALY":"287.8731","TIME_SYSTEM":"UTC","EPOCH":"2021-11-21T10:16:43.703904","CENTER_NAME":"EARTH","APOAPSIS":"548.360","MEAN_MOTION_DOT":"0.00001910","INCLINATION":"53.0532","OBJECT_TYPE":"PAYLOAD","PERIOD":"95.592","COUNTRY_CODE":"US","BSTAR":"0.00014714000000","LAUNCH_DATE":"2020-09-03","RA_OF_ASC_NODE":"221.3013","REV_AT_EPOCH":"6778","MEAN_MOTION_DDOT":"0.0000000000000","OBJECT_NAME":"STARLINK-1657","RCS_SIZE":"LARGE","REF_FRAME":"TEME","TLE_LINE1":"1 46354U 20062AF  21325.42828361  .00001910  00000-0  14714-3 0  9990","ARG_OF_PERICENTER":"72.2435","OBJECT_ID":"2020-062AF","SITE":"AFETR","CLASSIFICATION_TYPE":"U","EPHEMERIS_TYPE":"0","PERIAPSIS":"546.101","SEMIMAJOR_AXIS":"6925.365","DECAY_DATE":null,"ECCENTRICITY":"0.00016310","MEAN_ELEMENT_THEORY":"SGP4","NORAD_CAT_ID":"46354","GP_ID":"190204072","FILE":"3220686","ELEMENT_SET_NO":"999"},{"COUNTRY_CODE":"US","BSTAR":"0.00018874000000","LAUNCH_DATE":"2020-09-03","REV_AT_EPOCH":"6801","MEAN_MOTION_DDOT":"0.0000000000000","OBJECT_NAME":"STARLINK-1661","RA_OF_ASC_NODE":"219.9335","TLE_LINE1":"1 46355U 20062AG  21325.73420318  .00002531  00000-0  18874-3 0  9996","RCS_SIZE":"LARGE","REF_FRAME":"TEME","MEAN_ANOMALY":"286.9168","TIME_SYSTEM":"UTC","TLE_LINE2":"2 46355  53.0533 219.9335 0002156  73.2057 286.9168 15.06404637 68015","MEAN_MOTION":"15.06404637","EPOCH":"2021-11-21T17:37:15.154752","OBJECT_TYPE":"PAYLOAD","INCLINATION":"53.0533","CENTER_NAME":"EARTH","APOAPSIS":"548.692","MEAN_MOTION_DOT":"0.00002531","PERIOD":"95.592","ECCENTRICITY":"0.00021560","MEAN_ELEMENT_THEORY":"SGP4","SEMIMAJOR_AXIS":"6925.334","DECAY_DATE":null,"GP_ID":"190207085","NORAD_CAT_ID":"46355","ELEMENT_SET_NO":"999","FILE":"3220736","OBJECT_ID":"2020-062AG","ARG_OF_PERICENTER":"73.2057","SITE":"AFETR","CLASSIFICATION_TYPE":"U","EPHEMERIS_TYPE":"0","PERIAPSIS":"545.706"},{"SITE":"AFETR","ARG_OF_PERICENTER":"73.4151","OBJECT_ID":"2020-062AH","PERIAPSIS":"545.870","EPHEMERIS_TYPE":"0","CLASSIFICATION_TYPE":"U","DECAY_DATE":null,"SEMIMAJOR_AXIS":"6925.348","MEAN_ELEMENT_THEORY":"SGP4","ECCENTRICITY":"0.00019390","FILE":"3220686","ELEMENT_SET_NO":"999","NORAD_CAT_ID":"46356","GP_ID":"190204569","EPOCH":"2021-11-21T09:55:28.432992","TLE_LINE2":"2 46356  53.0533 221.3818 0001939  73.4151 286.7050 15.06400337 67788","MEAN_MOTION":"15.06400337","TIME_SYSTEM":"UTC","MEAN_ANOMALY":"286.7050","PERIOD":"95.592","MEAN_MOTION_DOT":"0.00001560","CENTER_NAME":"EARTH","APOAPSIS":"548.555","INCLINATION":"53.0533","OBJECT_TYPE":"PAYLOAD","LAUNCH_DATE":"2020-09-03","BSTAR":"0.00012363000000","COUNTRY_CODE":"US","REF_FRAME":"TEME","RCS_SIZE":"LARGE","TLE_LINE1":"1 46356U 20062AH  21325.41352353  .00001560  00000-0  12363-3 0  9993","RA_OF_ASC_NODE":"221.3818","MEAN_MOTION_DDOT":"0.0000000000000","OBJECT_NAME":"STARLINK-1665","REV_AT_EPOCH":"6778"},{"LAUNCH_DATE":"2020-09-03","BSTAR":"0.00010540000000","COUNTRY_CODE":"US","REF_FRAME":"TEME","RCS_SIZE":"LARGE","TLE_LINE1":"1 46357U 20062AJ  21325.74342073  .00001289  00000-0  10540-3 0  9991","RA_OF_ASC_NODE":"199.9038","OBJECT_NAME":"STARLINK-1666","MEAN_MOTION_DDOT":"0.0000000000000","REV_AT_EPOCH":"6829","EPOCH":"2021-11-21T17:50:31.551072","MEAN_MOTION":"15.06400837","TLE_LINE2":"2 46357  53.0548 199.9038 0001795  70.5267 289.5916 15.06400837 68299","TIME_SYSTEM":"UTC","MEAN_ANOMALY":"289.5916","PERIOD":"95.592","MEAN_MOTION_DOT":"0.00001289","APOAPSIS":"548.454","CENTER_NAME":"EARTH","INCLINATION":"53.0548","OBJECT_TYPE":"PAYLOAD","DECAY_DATE":null,"SEMIMAJOR_AXIS":"6925.346","MEAN_ELEMENT_THEORY":"SGP4","ECCENTRICITY":"0.00017950","FILE":"3220741","ELEMENT_SET_NO":"999","NORAD_CAT_ID":"46357","GP_ID":"190207469","SITE":"AFETR","ARG_OF_PERICENTER":"70.5267","OBJECT_ID":"2020-062AJ","PERIAPSIS":"545.968","EPHEMERIS_TYPE":"0","CLASSIFICATION_TYPE":"U"},{"EPOCH":"2021-11-21T15:45:47.688480","MEAN_MOTION":"15.06399769","TLE_LINE2":"2 46358  53.0535 220.2803 0001997  70.9977 289.1228 15.06399769 68002","TIME_SYSTEM":"UTC","MEAN_ANOMALY":"289.1228","PERIOD":"95.592","MEAN_MOTION_DOT":"0.00001931","APOAPSIS":"548.597","CENTER_NAME":"EARTH","OBJECT_TYPE":"PAYLOAD","INCLINATION":"53.0535","LAUNCH_DATE":"2020-09-03","BSTAR":"0.00014848000000","COUNTRY_CODE":"US","REF_FRAME":"TEME","RCS_SIZE":"LARGE","TLE_LINE1":"1 46358U 20062AK  21325.65680195  .00001931  00000-0  14848-3 0  9991","RA_OF_ASC_NODE":"220.2803","MEAN_MOTION_DDOT":"0.0000000000000","OBJECT_NAME":"STARLINK-1690","REV_AT_EPOCH":"6800","SITE":"AFETR","ARG_OF_PERICENTER":"70.9977","OBJECT_ID":"2020-062AK","PERIAPSIS":"545.831","EPHEMERIS_TYPE":"0","CLASSIFICATION_TYPE":"U","DECAY_DATE":null,"SEMIMAJOR_AXIS":"6925.349","MEAN_ELEMENT_THEORY":"SGP4","ECCENTRICITY":"0.00019970","FILE":"3220748","ELEMENT_SET_NO":"999","NORAD_CAT_ID":"46358","GP_ID":"190207583"},{"LAUNCH_DATE":"2020-09-03","COUNTRY_CODE":"US","BSTAR":"0.00007951100000","TLE_LINE1":"1 46359U 20062AL  21325.76969803  .00000903  00000-0  79511-4 0  9997","RCS_SIZE":"LARGE","REF_FRAME":"TEME","REV_AT_EPOCH":"6864","OBJECT_NAME":"STARLINK-1707","MEAN_MOTION_DDOT":"0.0000000000000","RA_OF_ASC_NODE":"174.7791","EPOCH":"2021-11-21T18:28:21.909792","MEAN_ANOMALY":"283.4841","TIME_SYSTEM":"UTC","MEAN_MOTION":"15.06390441","TLE_LINE2":"2 46359  53.0539 174.7791 0001854  76.6354 283.4841 15.06390441 68646","PERIOD":"95.593","OBJECT_TYPE":"PAYLOAD","INCLINATION":"53.0539","APOAPSIS":"548.527","CENTER_NAME":"EARTH","MEAN_MOTION_DOT":"0.00000903","ECCENTRICITY":"0.00018540","MEAN_ELEMENT_THEORY":"SGP4","SEMIMAJOR_AXIS":"6925.378","DECAY_DATE":null,"ELEMENT_SET_NO":"999","FILE":"3220748","GP_ID":"190207577","NORAD_CAT_ID":"46359","SITE":"AFETR","OBJECT_ID":"2020-062AL","ARG_OF_PERICENTER":"76.6354","EPHEMERIS_TYPE":"0","PERIAPSIS":"545.959","CLASSIFICATION_TYPE":"U"}];
